RAVAN                   
1 41849U 16067B   18352.18506400  .00000288  00000-0  29546-4 0  9997
2 41849  97.9221  83.6634 0007687 267.6469  92.3873 14.98023024114670
CELTEE 1                
1 41850U 16067C   18351.78922139  .00000186  00000-0  21456-4 0  9994
2 41850  97.9198  82.3656 0007573 271.5992  88.4362 14.96911584114566
OPTICUBE 04             
1 41851U 16067D   18351.84097839 -.00000370  00000-0 -27034-4 0  9997
2 41851  97.9198  82.2770 0007704 275.2528  84.7814 14.96738886114568
AEROCUBE 8D             
1 41852U 16067E   18351.89683839 -.00000284  00000-0 -19599-4 0  9995
2 41852  97.9216  82.1630 0008276 275.1757  84.8519 14.96608994114550
AEROCUBE 8C             
1 41853U 16067F   18352.18284153  .00000056  00000-0  10249-4 0  9993
2 41853  97.9206  82.4022 0008845 273.7534  86.2675 14.96568179114590
PROMETHEUS 2-1          
1 41854U 16067G   18351.83882385 -.00000178  00000-0 -10260-4 0  9996
2 41854  97.9217  82.1163 0009158 275.4410  84.5766 14.96730920114548
PROMETHEUS 2-3          
1 41855U 16067H   18352.24268399 -.00000059  00000-0  12912-6 0  9991
2 41855  97.9217  82.5344 0009380 273.9953  86.0196 14.96730769114608
ITF-2                   
1 41932U 98067KU  18351.74575315  .00293370  50891-4  38408-3 0  9991
2 41932  51.6217 101.4712 0004852 322.4493  37.6180 16.06373015109899
INS-1B                  
1 41954U 17008G   18351.73151176  .00000979  00000-0  43984-4 0  9995
2 41954  97.4253  53.9778 0010851  72.7818 287.4605 15.23479983101940
BGUSAT                  
1 41999U 17008BD  18352.21915661  .00001656  00000-0  68490-4 0  9997
2 41999  97.4307  56.1190 0009934  85.6622 274.5751 15.25352859101479
DIDO-2                  
1 42000U 17008BE  18351.85414657  .00000726  00000-0  33326-4 0  9996
2 42000  97.4267  54.6075 0010267  88.3497 271.8915 15.23557107101365
PEASSS                  
1 42015U 17008BV  18351.86226964  .00000914  00000-0  40147-4 0  9993
2 42015  97.4270  55.3058 0008146  93.8038 266.4131 15.24436683101893
AL-FARABI 1             
1 42016U 17008BW  18351.86434652  .00001159  00000-0  49384-4 0  9993
2 42016  97.4281  55.6577 0007998  93.8253 266.3900 15.24958728102037
NAYIF-1 (EO-88)         
1 42017U 17008BX  18351.85549944  .00001156  00000-0  49224-4 0  9994
2 42017  97.4278  55.6574 0007984  94.0084 266.2067 15.24986377102057
HAVELSAT                
1 42700U 98067LH  18351.82889771  .00087005  00000-0  31006-3 0  9994
2 42700  51.6248 126.3396 0004014 260.8323  99.2228 15.88152753 91012
CXBN-2                  
1 42704U 98067LM  18351.65618310  .00085072  00000-0  31415-3 0  9994
2 42704  51.6284 129.0074 0002362 238.2366 121.8409 15.87448671 90882
PHOENIX                 
1 42706U 98067LP  18351.84566212  .00037184  00000-0  20592-3 0  9995
2 42706  51.6276 134.1021 0001570 189.7239 170.3732 15.79192581 90822
X-CUBESAT               
1 42707U 98067LQ  18351.82351976  .00122818  16816-4  36539-3 0  9996
2 42707  51.6241 123.9320 0002885 272.5740  87.4936 15.92267752 90946
QBEE50-LTU-OC           
1 42708U 98067LR  18351.85625566  .00085610  00000-0  31122-3 0  9994
2 42708  51.6251 127.2960 0002319 263.5490  96.5250 15.87764110 90864
ALTAIR PATHFINDER       
1 42711U 98067LS  18352.04455852  .00019630  00000-0  16201-3 0  9999
2 42711  51.6327 149.0769 0003801 162.3957 197.7173 15.70333473 90305
SHARC                   
1 42712U 98067LT  18352.00594446  .00046022  00000-0  29760-3 0  9998
2 42712  51.6319 148.1201 0002797 197.0381 163.0526 15.75592954 90558
ZA-AEROSAT              
1 42713U 98067LU  18351.79224228  .00038436  00000-0  22805-3 0  9995
2 42713  51.6338 139.0295 0002471 178.9881 181.1125 15.77633453 90417
CSUNSAT 1               
1 42715U 98067LW  18351.99956603  .00041799  00000-0  22816-3 0  9996
2 42715  51.6317 135.9165 0003085 183.0979 177.0004 15.79452596 90479
SPACECUBE               
1 42717U 98067LY  18351.83825246  .00088227  00000-0  32527-3 0  9996
2 42717  51.6207 127.8290 0003537 259.1577 100.9030 15.87463252 89932
HOOPOE                  
1 42718U 98067LZ  18351.79217576  .01030358  72865-3  68965-3 0  9992
2 42718  51.6218 115.2750 0007166 324.5102  35.5604 16.16343352 90090
NJUST-1                 
1 42722U 98067MB  18351.96394852  .00028141  00000-0  18517-3 0  9992
2 42722  51.6368 141.5262 0004683 205.0662 250.1718 15.75434789 89465
LILACSAT-1              
1 42725U 98067ME  18351.95413372  .00058210  00000-0  26743-3 0  9993
2 42725  51.6343 133.1259 0003713 221.3062 235.7167 15.83047423 89485
NSIGHT-1                
1 42726U 98067MF  18351.91332274  .00008054  00000-0  85119-4 0  9995
2 42726  51.6368 158.8492 0005146 194.8244 165.2601 15.65209850 89141
SNUSAT-1                
1 42727U 98067MG  18351.89745531  .00060913  00000-0  28462-3 0  9996
2 42727  51.6293 133.6082 0004498 201.0787 159.0031 15.82664422 89436
POLYITAN-2-SAU          
1 42732U 98067MM  18351.80365770  .00123327  16817-4  37609-3 0  9995
2 42732  51.6267 125.3824 0002885 234.9476 125.1260 15.91789918 89428
SNUSAT-1B               
1 42733U 98067MN  18351.78347457  .00075432  00000-0  31061-3 0  9997
2 42733  51.6260 131.3300 0003708 202.0518 158.0326 15.85250210 89346
BEEAGLESAT              
1 42736U 98067MR  18351.81666313  .00047025  00000-0  24618-3 0  9996
2 42736  51.6299 136.1304 0004766 215.9361 144.1321 15.80310910 89342
UCLSAT                  
1 42765U 17036A   18352.15558124  .00000995  00000-0  46144-4 0  9997
2 42765  97.3783  48.8405 0012628 145.0901 215.1166 15.22296960 82690
LITUANICASAT-2          
1 42768U 17036D   18351.79466430  .00001494  00000-0  68115-4 0  9994
2 42768  97.3809  48.0394 0016599 138.7204 221.5290 15.22080454 82482
AALTO-1                 
1 42775U 17036L   18351.72687501  .00000573  00000-0  28853-4 0  9991
2 42775  97.3774  47.5641 0015280 137.3259 222.9167 15.21037978 82391
URSA MAIOR              
1 42776U 17036M   18352.16267966  .00000662  00000-0  32740-4 0  9999
2 42776  97.3780  48.0848 0015138 135.9715 224.2730 15.21150643 82461
COMPASS 2               
1 42777U 17036N   18352.16171331  .00001251  00000-0  57179-4 0  9998
2 42777  97.3810  48.8154 0013928 137.9434 222.2874 15.22312622 82497
DIAMOND RED             
1 42783U 17036U   18351.74571724  .00000756  00000-0  36247-4 0  9990
2 42783  97.3784  48.1784 0013252 147.0560 213.1505 15.21829558 82421
PEGASUS                 
1 42784U 17036V   18351.75712239  .00000852  00000-0  40198-4 0  9997
2 42784  97.3788  48.3269 0013143 146.7856 213.4208 15.22077863 82438
DIAMOND GREEN           
1 42785U 17036W   18351.67874732  .00000781  00000-0  37346-4 0  9998
2 42785  97.3787  48.1312 0013121 147.7850 212.4190 15.21829477 82485
DIAMOND BLUE            
1 42786U 17036X   18351.74353492  .00000760  00000-0  36422-4 0  9993
2 42786  97.3787  48.1943 0012955 147.7121 212.4911 15.21830960 82414
NUDTSAT                 
1 42787U 17036Y   18351.92364677  .00001546  00000-0  68939-4 0  9992
2 42787  97.3818  48.9013 0011184 142.8165 217.3850 15.22842238 82321
SUCHAI                  
1 42788U 17036Z   18351.74353975  .00001019  00000-0  47027-4 0  9992
2 42788  97.3790  48.5003 0012750 146.3080 213.8970 15.22418177 82517
SKCUBE                  
1 42789U 17036AA  18351.81506817  .00000960  00000-0  44574-4 0  9994
2 42789  97.3787  48.5444 0012596 146.0157 214.1888 15.22349829 82444
VZLUSAT-1               
1 42790U 17036AB  18351.77972488  .00001303  00000-0  58573-4 0  9998
2 42790  97.3797  48.7620 0012223 145.8522 214.3503 15.22852395 82459
ROBUSTA-1B              
1 42792U 17036AD  18351.83106948  .00000965  00000-0  44558-4 0  9998
2 42792  97.3787  48.6627 0012164 146.5654 213.6353 15.22508165 82463
CICERO 6                
1 42793U 17036AE  18351.78561009  .00000683  00000-0  32698-4 0  9995
2 42793  97.3774  48.5313 0011313 147.4751 212.7184 15.22240694 82523
D-SAT                   
1 42794U 17036AF  18351.86891991  .00000239  00000-0  26144-4 0  9997
2 42794  97.5676  39.3385 0127587  31.4410 329.4355 14.90987849 81090
TOKI                    
1 42820U 98067MU  18351.88557148  .00047043  00000-0  26168-3 0  9994
2 42820  51.6309 139.6259 0002421 186.0757 174.0216 15.78982581 82780
MAZAALAI (NUMSAT-1)     
1 42822U 98067MW  18351.84280104  .00043668  00000-0  25114-3 0  9996
2 42822  51.6323 140.8625 0002684 187.4070 172.6892 15.78272421 82726
BRAC ONNESHA            
1 42823U 98067MX  18351.88026133  .00044880  00000-0  25393-3 0  9997
2 42823  51.6291 140.3744 0004339 182.1098 177.9885 15.78617501 82754
NIGERIAEDUSAT-1         
1 42824U 98067MY  18351.87964712  .00043378  00000-0  25160-3 0  9994
2 42824  51.6332 141.1645 0004698 188.6678 171.4242 15.78076650 82742
CORVUS BC2              
1 42846U 17042X   18352.18527892  .00000213  00000-0  26400-4 0  9991
2 42846  97.5828 248.2395 0008436 309.7432  50.3043 14.91898094 77807
CORVUS BC1              
1 42847U 17042Y   18351.68126827  .00000144  00000-0  19487-4 0  9999
2 42847  97.5827 247.8314 0008137 311.3105  48.7413 14.91998044 77726
SILU-1 (SILKROAD 1)     
1 42903U 17021F   18352.16252104  .00048023  00000-0  20465-3 0  9996
2 42903  42.7738 285.1500 0015462 177.8488 319.8218 15.84238402 78973
MIRATA                  
1 43015U 17073C   18351.85401948  .00001414  00000-0  11552-3 0  9995
2 43015  97.7143 275.2713 0257720  33.6777 328.0515 14.78554093 58271
MAKERSAT 0              
1 43016U 17073D   18351.77748427  .00000935  00000-0  77950-4 0  9995
2 43016  97.7174 275.3708 0259436  34.0796 327.6773 14.78432995 58258
ASTERIA                 
1 43020U 98067NH  18351.89493602  .00006484  00000-0  73262-4 0  9994
2 43020  51.6406 168.5735 0002758 143.3743 216.7441 15.63888154 61196
DELLINGR (RBLE)         
1 43021U 98067NJ  18351.93845185  .00006150  00000-0  80578-4 0  9995
2 43021  51.6378 173.3003 0002923 131.6719 228.4525 15.60081851 61137
